{"type": "FeatureCollection", "features": [ {"type": "Feature", "properties": {"norad_id": 34976, "name": "COSMOS 2251 DEB", "group": "cosmos-2251-debris", "lat": 73.99280560948478, "lon": 39.529255166243566, "alt_km": 631.124657006897, "timestamp": "2025-12-08T13:49:32.189913+00:00", "meta": {"OBJECT_NAME": "COSMOS 2251 DEB", "OBJECT_ID": "1993-036AFF", "EPOCH": "2025-12-07T04:58:26.927040", "MEAN_MOTION": 14.76379192, "ECCENTRICITY": 0.00478535, "INCLINATION": 74.0577, "RA_OF_ASC_NODE": 317.071, "ARG_OF_PERICENTER": 4.9947, "MEAN_ANOMALY": 10.8679, "EPHEMERIS_TYPE": 0, "CLASSIFICATION_TYPE": "U", "NORAD_CAT_ID": 34976, "ELEMENT_SET_NO": 999, "REV_AT_EPOCH": 88192, "BSTAR": 0.0023287343, "MEAN_MOTION_DOT": 0.00016492, "MEAN_MOTION_DDOT": 0}, "tle": {"line1": "1 34976U 93036AFF 25341.20725610  .00016492  00000+0  23287-2 0  9993", "line2": "2 34976  74.0577 317.0710 0047853   4.9947  10.8679 14.76379192881928"}}, "geometry": {"type": "Point", "coordinates": [39.529255166243566, 73.99280560948478]}}, {"type": "Feature", "properties": {"norad_id": 34979, "name": "COSMOS 2251 DEB", "group": "cosmos-2251-debris", "lat": 73.21602709117471, "lon": 23.86486167304443, "alt_km": 630.8138133709781, "timestamp": "2025-12-08T13:49:32.189923+00:00", "meta": {"OBJECT_NAME": "COSMOS 2251 DEB", "OBJECT_ID": "1993-036AFJ", "EPOCH": "2025-12-08T05:16:59.707200", "MEAN_MOTION": 14.79208355, "ECCENTRICITY": 0.00491294, "INCLINATION": 74.0404, "RA_OF_ASC_NODE": 276.1537, "ARG_OF_PERICENTER": 355.0418, "MEAN_ANOMALY": 5.0264, "EPHEMERIS_TYPE": 0, "CLASSIFICATION_TYPE": "U", "NORAD_CAT_ID": 34979, "ELEMENT_SET_NO": 999, "REV_AT_EPOCH": 88153, "BSTAR": 0.0018325287, "MEAN_MOTION_DOT": 0.0001388, "MEAN_MOTION_DDOT": 0}, "tle": {"line1": "1 34979U 93036AFJ 25342.22013550  .00013880  00000+0  18325-2 0  9997", "line2": "2 34979  74.0404 276.1537 0049129 355.0418   5.0264 14.79208355881531"}}, "geometry": {"type": "Point", "coordinates": [23.86486167304443, 73.21602709117471]}}, {"type": "Feature", "properties": {"norad_id": 34990, "name": "COSMOS 2251 DEB", "group": "cosmos-2251-debris", "lat": 30.335893597994467, "lon": -91.30929912309878, "alt_km": 744.7870007940655, "timestamp": "2025-12-08T13:49:32.189933+00:00", "meta": {"OBJECT_NAME": "COSMOS 2251 DEB", "OBJECT_ID": "1993-036AFN", "EPOCH": "2025-12-07T01:03:28.213920", "MEAN_MOTION": 14.42350123, "ECCENTRICITY": 0.00162731, "INCLINATION": 74.0455, "RA_OF_ASC_NODE": 261.8923, "ARG_OF_PERICENTER": 325.0179, "MEAN_ANOMALY": 34.9906, "EPHEMERIS_TYPE": 0, "CLASSIFICATION_TYPE": "U", "NORAD_CAT_ID": 34990, "ELEMENT_SET_NO": 999, "REV_AT_EPOCH": 87264, "BSTAR": 0.00072596004, "MEAN_MOTION_DOT": 2.377e-05, "MEAN_MOTION_DDOT": 0}, "tle": {"line1": "1 34990U 93036AFN 25341.04407655  .00002377  00000+0  72596-3 0  9992", "line2": "2 34990  74.0455 261.8923 0016273 325.0179  34.9906 14.42350123872642"}}, "geometry": {"type": "Point", "coordinates": [-91.30929912309878, 30.335893597994467]}}, {"type": "Feature", "properties": {"norad_id": 34997, "name": "COSMOS 2251 DEB", "group": "cosmos-2251-debris", "lat": 29.342254096955898, "lon": 129.67858218984472, "alt_km": 796.0038343632305, "timestamp": "2025-12-08T13:49:32.189944+00:00", "meta": {"OBJECT_NAME": "COSMOS 2251 DEB", "OBJECT_ID": "1993-036AFV", "EPOCH": "2025-12-07T05:34:12.850752", "MEAN_MOTION": 14.45441909, "ECCENTRICITY": 0.00980928, "INCLINATION": 73.8797, "RA_OF_ASC_NODE": 321.5637, "ARG_OF_PERICENTER": 297.5324, "MEAN_ANOMALY": 61.5891, "EPHEMERIS_TYPE": 0, "CLASSIFICATION_TYPE": "U", "NORAD_CAT_ID": 34997, "ELEMENT_SET_NO": 999, "REV_AT_EPOCH": 70667, "BSTAR": 0.0028258875, "MEAN_MOTION_DOT": 0.00010545, "MEAN_MOTION_DDOT": 0}, "tle": {"line1": "1 34997U 93036AFV 25341.23209318  .00010545  00000+0  28259-2 0  9998", "line2": "2 34997  73.8797 321.5637 0098092 297.5324  61.5891 14.45441909706679"}}, "geometry": {"type": "Point", "coordinates": [129.67858218984472, 29.342254096955898]}}, {"type": "Feature", "properties": {"norad_id": 34998, "name": "COSMOS 2251 DEB", "group": "cosmos-2251-debris", "lat": -25.894220945374418, "lon": 159.80330539602167, "alt_km": 719.3241822781201, "timestamp": "2025-12-08T13:49:32.189956+00:00", "meta": {"OBJECT_NAME": "COSMOS 2251 DEB", "OBJECT_ID": "1993-036AFW", "EPOCH": "2025-12-07T23:46:10.650720", "MEAN_MOTION": 14.49249063, "ECCENTRICITY": 0.00209761, "INCLINATION": 74.0093, "RA_OF_ASC_NODE": 168.905, "ARG_OF_PERICENTER": 314.9887, "MEAN_ANOMALY": 203.6642, "EPHEMERIS_TYPE": 0, "CLASSIFICATION_TYPE": "U", "NORAD_CAT_ID": 34998, "ELEMENT_SET_NO": 999, "REV_AT_EPOCH": 87351, "BSTAR": 0.00075062665, "MEAN_MOTION_DOT": 2.843e-05, "MEAN_MOTION_DDOT": 0}, "tle": {"line1": "1 34998U 93036AFW 25341.99040105  .00002843  00000+0  75063-3 0  9997", "line2": "2 34998  74.0093 168.9050 0020976 314.9887 203.6642 14.49249063873510"}}, "geometry": {"type": "Point", "coordinates": [159.80330539602167, -25.894220945374418]}}, {"type": "Feature", "properties": {"norad_id": 35000, "name": "COSMOS 2251 DEB", "group": "cosmos-2251-debris", "lat": 14.633292883189402, "lon": -148.15936196841972, "alt_km": 337.49350375003814, "timestamp": "2025-12-08T13:49:32.189966+00:00", "meta": {"OBJECT_NAME": "COSMOS 2251 DEB", "OBJECT_ID": "1993-036AFY", "EPOCH": "2025-12-08T01:36:00.037440", "MEAN_MOTION": 15.78894052, "ECCENTRICITY": 0.00106386, "INCLINATION": 73.9984, "RA_OF_ASC_NODE": 208.7132, "ARG_OF_PERICENTER": 176.4741, "MEAN_ANOMALY": 183.6565, "EPHEMERIS_TYPE": 0, "CLASSIFICATION_TYPE": "U", "NORAD_CAT_ID": 35000, "ELEMENT_SET_NO": 999, "REV_AT_EPOCH": 88441, "BSTAR": 0.0067629895, "MEAN_MOTION_DOT": 0.01336693, "MEAN_MOTION_DDOT": 0}, "tle": {"line1": "1 35000U 93036AFY 25342.06666710  .01336693  00000+0  67630-2 0  9991", "line2": "2 35000  73.9984 208.7132 0010638 176.4741 183.6565 15.78894052884419"}}, "geometry": {"type": "Point", "coordinates": [-148.15936196841972, 14.633292883189402]}}, {"type": "Feature", "properties": {"norad_id": 35012, "name": "COSMOS 2251 DEB", "group": "cosmos-2251-debris", "lat": 2.912842645559036, "lon": 120.34312638484036, "alt_km": 754.7591364143655, "timestamp": "2025-12-08T13:49:32.189977+00:00", "meta": {"OBJECT_NAME": "COSMOS 2251 DEB", "OBJECT_ID": "1993-036AFZ", "EPOCH": "2025-12-07T16:13:09.050016", "MEAN_MOTION": 14.45538484, "ECCENTRICITY": 0.0081653, "INCLINATION": 74.0196, "RA_OF_ASC_NODE": 121.1873, "ARG_OF_PERICENTER": 262.396, "MEAN_ANOMALY": 96.7918, "EPHEMERIS_TYPE": 0, "CLASSIFICATION_TYPE": "U", "NORAD_CAT_ID": 35012, "ELEMENT_SET_NO": 999, "REV_AT_EPOCH": 87488, "BSTAR": 0.00032182606, "MEAN_MOTION_DOT": 1.154e-05, "MEAN_MOTION_DDOT": 0}, "tle": {"line1": "1 35012U 93036AFZ 25341.67579919  .00001154  00000+0  32183-3 0  9990", "line2": "2 35012  74.0196 121.1873 0081653 262.3960  96.7918 14.45538484874885"}}, "geometry": {"type": "Point", "coordinates": [120.34312638484036, 2.912842645559036]}}, {"type": "Feature", "properties": {"norad_id": 35014, "name": "COSMOS 2251 DEB", "group": "cosmos-2251-debris", "lat": 24.779871110984892, "lon": 59.30814471181706, "alt_km": 649.0359367441906, "timestamp": "2025-12-08T13:49:32.189987+00:00", "meta": {"OBJECT_NAME": "COSMOS 2251 DEB", "OBJECT_ID": "1993-036AGB", "EPOCH": "2025-12-06T22:38:32.273376", "MEAN_MOTION": 14.75000144, "ECCENTRICITY": 0.00077244, "INCLINATION": 73.9998, "RA_OF_ASC_NODE": 54.8925, "ARG_OF_PERICENTER": 229.6531, "MEAN_ANOMALY": 130.3968, "EPHEMERIS_TYPE": 0, "CLASSIFICATION_TYPE": "U", "NORAD_CAT_ID": 35014, "ELEMENT_SET_NO": 999, "REV_AT_EPOCH": 71251, "BSTAR": 0.0025951547, "MEAN_MOTION_DOT": 0.00017481, "MEAN_MOTION_DDOT": 0}, "tle": {"line1": "1 35014U 93036AGB 25340.94342909  .00017481  00000+0  25952-2 0  9993", "line2": "2 35014  73.9998  54.8925 0007724 229.6531 130.3968 14.75000144712513"}}, "geometry": {"type": "Point", "coordinates": [59.30814471181706, 24.779871110984892]}}, {"type": "Feature", "properties": {"norad_id": 35015, "name": "COSMOS 2251 DEB", "group": "cosmos-2251-debris", "lat": 57.68485299885462, "lon": 35.47130713206418, "alt_km": 677.5683650498158, "timestamp": "2025-12-08T13:49:32.189997+00:00", "meta": {"OBJECT_NAME": "COSMOS 2251 DEB", "OBJECT_ID": "1993-036AGC", "EPOCH": "2025-12-08T00:05:52.237248", "MEAN_MOTION": 14.46833983, "ECCENTRICITY": 0.00741883, "INCLINATION": 73.9478, "RA_OF_ASC_NODE": 243.6217, "ARG_OF_PERICENTER": 113.7247, "MEAN_ANOMALY": 266.4905, "EPHEMERIS_TYPE": 0, "CLASSIFICATION_TYPE": "U", "NORAD_CAT_ID": 35015, "ELEMENT_SET_NO": 999, "REV_AT_EPOCH": 65372, "BSTAR": 0.0010794966, "MEAN_MOTION_DOT": 4.023e-05, "MEAN_MOTION_DDOT": 0}, "tle": {"line1": "1 35015U 93036AGC 25342.00407682  .00004023  00000+0  10795-2 0  9990", "line2": "2 35015  73.9478 243.6217 0074188 113.7247 266.4905 14.46833983653726"}}, "geometry": {"type": "Point", "coordinates": [35.47130713206418, 57.68485299885462]}}, {"type": "Feature", "properties": {"norad_id": 35016, "name": "COSMOS 2251 DEB", "group": "cosmos-2251-debris", "lat": -39.831114255711604, "lon": -71.80582793551127, "alt_km": 792.0112732282332, "timestamp": "2025-12-08T13:49:32.190008+00:00", "meta": {"OBJECT_NAME": "COSMOS 2251 DEB", "OBJECT_ID": "1993-036AGD", "EPOCH": "2025-12-08T05:57:49.079808", "MEAN_MOTION": 14.35046759, "ECCENTRICITY": 0.01147431, "INCLINATION": 73.9297, "RA_OF_ASC_NODE": 302.7106, "ARG_OF_PERICENTER": 220.6303, "MEAN_ANOMALY": 204.6817, "EPHEMERIS_TYPE": 0, "CLASSIFICATION_TYPE": "U", "NORAD_CAT_ID": 35016, "ELEMENT_SET_NO": 999, "REV_AT_EPOCH": 86718, "BSTAR": 0.00066640016, "MEAN_MOTION_DOT": 2.018e-05, "MEAN_MOTION_DDOT": 0}, "tle": {"line1": "1 35016U 93036AGD 25342.24848472  .00002018  00000+0  66640-3 0  9996", "line2": "2 35016  73.9297 302.7106 0114743 220.6303 204.6817 14.35046759867181"}}, "geometry": {"type": "Point", "coordinates": [-71.80582793551127, -39.831114255711604]}}]}